[{"OBJECT_NAME":"JINJUSAT-1B","OBJECT_ID":"2025-052A","EPOCH":"2026-03-09T15:55:38.242848","MEAN_MOTION":15.30194857,"ECCENTRICITY":0.00055504,"INCLINATION":97.4113,"RA_OF_ASC_NODE":325.4613,"ARG_OF_PERICENTER":82.193,"MEAN_ANOMALY":277.9941,"EPHEMERIS_TYPE":0,"CLASSIFICATION_TYPE":"U","NORAD_CAT_ID":63210,"ELEMENT_SET_NO":999,"REV_AT_EPOCH":5486,"BSTAR":0.00068430401,"MEAN_MOTION_DOT":0.00019955,"MEAN_MOTION_DDOT":0},{"OBJECT_NAME":"STARLINK-35623","OBJECT_ID":"2025-237AA","EPOCH":"2026-03-09T05:04:24.841632","MEAN_MOTION":15.3019046,"ECCENTRICITY":0.0001058,"INCLINATION":53.1591,"RA_OF_ASC_NODE":42.1028,"ARG_OF_PERICENTER":90.3957,"MEAN_ANOMALY":269.7165,"EPHEMERIS_TYPE":0,"CLASSIFICATION_TYPE":"U","NORAD_CAT_ID":66138,"ELEMENT_SET_NO":999,"REV_AT_EPOCH":2253,"BSTAR":0.0013411717,"MEAN_MOTION_DOT":0.00039562,"MEAN_MOTION_DDOT":0}]
